{
  "type": "FeatureCollection",
  "features": [
    {
      "type": "Feature",
      "properties": {
        "norad_id": 30368,
        "name": "FENGYUN 1C DEB",
        "group": "fengyun-1c-debris",
        "lat": 14.17903767095319,
        "lon": -71.54302660979782,
        "alt_km": 1015.5934717295422,
        "timestamp": "2025-12-26T16:33:55.847566+00:00",
        "meta_object_name": "FENGYUN 1C DEB",
        "meta_object_id": "1999-025ACF",
        "meta_epoch": "2025-12-24T20:43:29.343648",
        "meta_mean_motion": 13.7537778,
        "meta_eccentricity": 0.01863355,
        "meta_inclination": 99.1881,
        "meta_ra_of_asc_node": 104.3527,
        "meta_arg_of_pericenter": 275.917,
        "meta_mean_anomaly": 211.854,
        "meta_ephemeris_type": 0,
        "meta_classification_type": "U",
        "meta_norad_cat_id": 30368,
        "meta_element_set_no": 999,
        "meta_rev_at_epoch": 94828,
        "meta_bstar": 0.00049197383,
        "meta_mean_motion_dot": 4.92e-06,
        "meta_mean_motion_ddot": 0,
        "tle_line1": "1 30368U 99025ACF 25358.86353407  .00000492  00000+0  49197-3 0  9991",
        "tle_line2": "2 30368  99.1881 104.3527 0186335 275.9170 211.8540 13.75377780948287"
      },
      "geometry": {
        "type": "Point",
        "coordinates": [
          -71.54302660979782,
          14.17903767095319
        ]
      }
    },
    {
      "type": "Feature",
      "properties": {
        "norad_id": 30369,
        "name": "FENGYUN 1C DEB",
        "group": "fengyun-1c-debris",
        "lat": 78.5567758110772,
        "lon": -51.65419379832664,
        "alt_km": 823.5008867178894,
        "timestamp": "2025-12-26T16:33:55.847575+00:00",
        "meta_object_name": "FENGYUN 1C DEB",
        "meta_object_id": "1999-025ACG",
        "meta_epoch": "2025-12-25T23:27:52.028064",
        "meta_mean_motion": 14.12066737,
        "meta_eccentricity": 0.009979,
        "meta_inclination": 98.7218,
        "meta_ra_of_asc_node": 356.9726,
        "meta_arg_of_pericenter": 157.8588,
        "meta_mean_anomaly": 265.666,
        "meta_ephemeris_type": 0,
        "meta_classification_type": "U",
        "meta_norad_cat_id": 30369,
        "meta_element_set_no": 999,
        "meta_rev_at_epoch": 97433,
        "meta_bstar": 0.00015653,
        "meta_mean_motion_dot": 2.58e-06,
        "meta_mean_motion_ddot": 0,
        "tle_line1": "1 30369U 99025ACG 25359.97768551  .00000258  00000+0  15653-3 0  9995",
        "tle_line2": "2 30369  98.7218 356.9726 0099790 157.8588 265.6660 14.12066737974336"
      },
      "geometry": {
        "type": "Point",
        "coordinates": [
          -51.65419379832664,
          78.5567758110772
        ]
      }
    },
    {
      "type": "Feature",
      "properties": {
        "norad_id": 30370,
        "name": "FENGYUN 1C DEB",
        "group": "fengyun-1c-debris",
        "lat": 7.035496332002898,
        "lon": 55.81713121661214,
        "alt_km": 829.2401315032657,
        "timestamp": "2025-12-26T16:33:55.847585+00:00",
        "meta_object_name": "FENGYUN 1C DEB",
        "meta_object_id": "1999-025ACH",
        "meta_epoch": "2025-12-26T03:15:30.924576",
        "meta_mean_motion": 14.19218493,
        "meta_eccentricity": 0.00997349,
        "meta_inclination": 99.0553,
        "meta_ra_of_asc_node": 56.3784,
        "meta_arg_of_pericenter": 278.7942,
        "meta_mean_anomaly": 136.0642,
        "meta_ephemeris_type": 0,
        "meta_classification_type": "U",
        "meta_norad_cat_id": 30370,
        "meta_element_set_no": 999,
        "meta_rev_at_epoch": 97284,
        "meta_bstar": 0.0011911662,
        "meta_mean_motion_dot": 2.576e-05,
        "meta_mean_motion_ddot": 0,
        "tle_line1": "1 30370U 99025ACH 25360.13577459  .00002576  00000+0  11912-2 0  9990",
        "tle_line2": "2 30370  99.0553  56.3784 0099734 278.7942 136.0642 14.19218493972844"
      },
      "geometry": {
        "type": "Point",
        "coordinates": [
          55.81713121661214,
          7.035496332002898
        ]
      }
    },
    {
      "type": "Feature",
      "properties": {
        "norad_id": 30371,
        "name": "FENGYUN 1C DEB",
        "group": "fengyun-1c-debris",
        "lat": -38.176122578600555,
        "lon": -143.32319313152695,
        "alt_km": 795.5184125851938,
        "timestamp": "2025-12-26T16:33:55.847594+00:00",
        "meta_object_name": "FENGYUN 1C DEB",
        "meta_object_id": "1999-025ACJ",
        "meta_epoch": "2025-12-26T02:22:00.824160",
        "meta_mean_motion": 14.30299082,
        "meta_eccentricity": 0.00068986,
        "meta_inclination": 98.5747,
        "meta_ra_of_asc_node": 42.9069,
        "meta_arg_of_pericenter": 291.6194,
        "meta_mean_anomaly": 122.5413,
        "meta_ephemeris_type": 0,
        "meta_classification_type": "U",
        "meta_norad_cat_id": 30371,
        "meta_element_set_no": 999,
        "meta_rev_at_epoch": 98094,
        "meta_bstar": 0.00097596966,
        "meta_mean_motion_dot": 2.49e-05,
        "meta_mean_motion_ddot": 0,
        "tle_line1": "1 30371U 99025ACJ 25360.09862065  .00002490  00000+0  97597-3 0  9995",
        "tle_line2": "2 30371  98.5747  42.9069 0006898 291.6194 122.5413 14.30299082980945"
      },
      "geometry": {
        "type": "Point",
        "coordinates": [
          -143.32319313152695,
          -38.176122578600555
        ]
      }
    },
    {
      "type": "Feature",
      "properties": {
        "norad_id": 30374,
        "name": "FENGYUN 1C DEB",
        "group": "fengyun-1c-debris",
        "lat": 63.61040138345002,
        "lon": -153.32204583292693,
        "alt_km": 667.9448884995772,
        "timestamp": "2025-12-26T16:33:55.847603+00:00",
        "meta_object_name": "FENGYUN 1C DEB",
        "meta_object_id": "1999-025ACM",
        "meta_epoch": "2025-12-26T03:41:30.243264",
        "meta_mean_motion": 14.61470427,
        "meta_eccentricity": 0.00397983,
        "meta_inclination": 99.2722,
        "meta_ra_of_asc_node": 225.3005,
        "meta_arg_of_pericenter": 126.7,
        "meta_mean_anomaly": 358.3436,
        "meta_ephemeris_type": 0,
        "meta_classification_type": "U",
        "meta_norad_cat_id": 30374,
        "meta_element_set_no": 999,
        "meta_rev_at_epoch": 99118,
        "meta_bstar": 0.0015136076,
        "meta_mean_motion_dot": 7.534e-05,
        "meta_mean_motion_ddot": 0,
        "tle_line1": "1 30374U 99025ACM 25360.15382226  .00007534  00000+0  15136-2 0  9993",
        "tle_line2": "2 30374  99.2722 225.3005 0039798 126.7000 358.3436 14.61470427991185"
      },
      "geometry": {
        "type": "Point",
        "coordinates": [
          -153.32204583292693,
          63.61040138345002
        ]
      }
    },
    {
      "type": "Feature",
      "properties": {
        "norad_id": 30377,
        "name": "FENGYUN 1C DEB",
        "group": "fengyun-1c-debris",
        "lat": -15.158101667897514,
        "lon": 22.20832258163216,
        "alt_km": 939.2558595302289,
        "timestamp": "2025-12-26T16:33:55.847611+00:00",
        "meta_object_name": "FENGYUN 1C DEB",
        "meta_object_id": "1999-025ACQ",
        "meta_epoch": "2025-12-26T01:31:30.668160",
        "meta_mean_motion": 13.99186408,
        "meta_eccentricity": 0.01178867,
        "meta_inclination": 98.8928,
        "meta_ra_of_asc_node": 19.169,
        "meta_arg_of_pericenter": 229.5897,
        "meta_mean_anomaly": 199.0692,
        "meta_ephemeris_type": 0,
        "meta_classification_type": "U",
        "meta_norad_cat_id": 30377,
        "meta_element_set_no": 999,
        "meta_rev_at_epoch": 96393,
        "meta_bstar": 0.0004794695,
        "meta_mean_motion_dot": 6.94e-06,
        "meta_mean_motion_ddot": 0,
        "tle_line1": "1 30377U 99025ACQ 25360.06354940  .00000694  00000+0  47947-3 0  9994",
        "tle_line2": "2 30377  98.8928  19.1690 0117886 229.5897 199.0692 13.99186408963930"
      },
      "geometry": {
        "type": "Point",
        "coordinates": [
          22.20832258163216,
          -15.158101667897514
        ]
      }
    },
    {
      "type": "Feature",
      "properties": {
        "norad_id": 30379,
        "name": "FENGYUN 1C DEB",
        "group": "fengyun-1c-debris",
        "lat": -5.629282334173777,
        "lon": -165.85425662358165,
        "alt_km": 854.1782045269274,
        "timestamp": "2025-12-26T16:33:55.847620+00:00",
        "meta_object_name": "FENGYUN 1C DEB",
        "meta_object_id": "1999-025ACS",
        "meta_epoch": "2025-12-25T13:00:29.378880",
        "meta_mean_motion": 14.08047709,
        "meta_eccentricity": 0.0035654,
        "meta_inclination": 98.7577,
        "meta_ra_of_asc_node": 13.9024,
        "meta_arg_of_pericenter": 242.1629,
        "meta_mean_anomaly": 246.6692,
        "meta_ephemeris_type": 0,
        "meta_classification_type": "U",
        "meta_norad_cat_id": 30379,
        "meta_element_set_no": 999,
        "meta_rev_at_epoch": 96997,
        "meta_bstar": 0.00020936,
        "meta_mean_motion_dot": 3.15e-06,
        "meta_mean_motion_ddot": 0,
        "tle_line1": "1 30379U 99025ACS 25359.54200670  .00000315  00000+0  20936-3 0  9996",
        "tle_line2": "2 30379  98.7577  13.9024 0035654 242.1629 246.6692 14.08047709969970"
      },
      "geometry": {
        "type": "Point",
        "coordinates": [
          -165.85425662358165,
          -5.629282334173777
        ]
      }
    }
  ]
}